ONEWEB-0668             
1 56711U 23068B   26016.20700950  .00000112  00000+0  25930-3 0  9992
2 56711  87.9042 259.0192 0001641  98.8699 261.2618 13.16594952131782
ONEWEB-0676             
1 56712U 23068C   26016.21491953  .00000081  00000+0  17715-3 0  9991
2 56712  87.9031 259.0362 0001767  73.8019 286.3307 13.16593368131703
ONEWEB-0677             
1 56713U 23068D   26016.21860656  .00000060  00000+0  11606-3 0  9992
2 56713  87.9232 304.7523 0001880  79.1097 281.0248 13.20771669129749
ONEWEB-0678             
1 56714U 23068E   26016.19744914  .00000214  00000+0  53366-3 0  9998
2 56714  87.9012 289.5226 0001522  63.7651 296.3636 13.15549111129305
ONEWEB-0679             
1 56715U 23068F   26016.17376548  .00000040  00000+0  70191-4 0  9994
2 56715  87.9030 259.0266 0001973  87.6180 272.5177 13.16594418131720
ONEWEB-0680             
1 56716U 23068G   26016.24968984  .00000003  00000+0 -25461-4 0  9994
2 56716  87.9221 274.2702 0001850  95.3998 264.7347 13.21825523131029
ONEWEB-0681             
1 56717U 23068H   26016.22911097 -.00000039  00000+0 -12498-3 0  9991
2 56717  87.9215 274.2869 0002522  63.4152 296.7240 13.21823865131015
ONEWEB-0682             
1 56718U 23068J   26016.22358453 -.00000002  00000+0 -38869-4 0  9994
2 56718  87.9005 289.5288 0001871  90.6527 269.4818 13.15550251129475
ONEWEB-0683             
1 56719U 23068K   26016.24498628 -.00000111  00000+0 -32904-3 0  9990
2 56719  87.9016 289.5124 0001649  83.7870 276.3448 13.15548854129443
ONEWEB-0684             
1 56720U 23068L   26016.17682955 -.00000266  00000+0 -74088-3 0  9992
2 56720  87.9007 289.5187 0000718  16.7052 343.4102 13.15547810129262
ONEWEB-0686             
1 56721U 23068M   26016.21499643  .00000063  00000+0  13022-3 0  9992
2 56721  87.9021 259.0667 0001234  92.6565 267.4708 13.17180663131711
ONEWEB-0694             
1 56722U 23068N   26016.21649697  .00000044  00000+0  81141-4 0  9996
2 56722  87.9043 259.0002 0001618  95.6527 264.4789 13.16592960131774
ONEWEB-0696             
1 56723U 23068P   26016.21012246  .00000185  00000+0  45700-3 0  9997
2 56723  87.9004 289.5629 0001420  66.1850 293.9429 13.15549313129383
ONEWEB-0703             
1 56724U 23068Q   26016.21963682  .00000069  00000+0  14841-3 0  9990
2 56724  87.9005 289.5420 0001880  41.0173 319.1098 13.15548447129272
ONEWEB-0721             
1 56725U 23068R   26016.29129947 -.00000027  00000+0 -98732-4 0  9995
2 56725  86.6822 133.9882 0001565 106.0144 254.1162 13.22456764137862
ONEWEB-0015             
1 61594U 24188A   26016.32629378  .00000229  00000+0  60916-3 0  9990
2 61594  87.8818  51.3287 0002401  93.1248 267.0155 13.11413586 64556
ONEWEB-0687             
1 61595U 24188B   26016.28250681  .00000075  00000+0  15977-3 0  9999
2 61595  87.9074  36.0840 0002299 102.3178 257.8211 13.17650561 65897
