[{"OBJECT_NAME":"ONEWEB-0668","OBJECT_ID":"2023-068B","EPOCH":"2026-01-16T04:58:05.620800","MEAN_MOTION":13.16594952,"ECCENTRICITY":0.00016419,"INCLINATION":87.9042,"RA_OF_ASC_NODE":259.0192,"ARG_OF_PERICENTER":98.8699,"MEAN_ANOMALY":261.2618,"EPHEMERIS_TYPE":0,"CLASSIFICATION_TYPE":"U","NORAD_CAT_ID":56711,"ELEMENT_SET_NO":999,"REV_AT_EPOCH":13178,"BSTAR":0.00025930347,"MEAN_MOTION_DOT":1.12e-6,"MEAN_MOTION_DDOT":0},{"OBJECT_NAME":"ONEWEB-0676","OBJECT_ID":"2023-068C","EPOCH":"2026-01-16T05:09:29.047392","MEAN_MOTION":13.16593368,"ECCENTRICITY":0.0001767,"INCLINATION":87.9031,"RA_OF_ASC_NODE":259.0362,"ARG_OF_PERICENTER":73.8019,"MEAN_ANOMALY":286.3307,"EPHEMERIS_TYPE":0,"CLASSIFICATION_TYPE":"U","NORAD_CAT_ID":56712,"ELEMENT_SET_NO":999,"REV_AT_EPOCH":13170,"BSTAR":0.00017715285,"MEAN_MOTION_DOT":8.1e-7,"MEAN_MOTION_DDOT":0},{"OBJECT_NAME":"ONEWEB-0677","OBJECT_ID":"2023-068D","EPOCH":"2026-01-16T05:14:47.606784","MEAN_MOTION":13.20771669,"ECCENTRICITY":0.000188,"INCLINATION":87.9232,"RA_OF_ASC_NODE":304.7523,"ARG_OF_PERICENTER":79.1097,"MEAN_ANOMALY":281.0248,"EPHEMERIS_TYPE":0,"CLASSIFICATION_TYPE":"U","NORAD_CAT_ID":56713,"ELEMENT_SET_NO":999,"REV_AT_EPOCH":12974,"BSTAR":0.00011606375,"MEAN_MOTION_DOT":6.0e-7,"MEAN_MOTION_DDOT":0},{"OBJECT_NAME":"ONEWEB-0678","OBJECT_ID":"2023-068E","EPOCH":"2026-01-16T04:44:19.605696","MEAN_MOTION":13.15549111,"ECCENTRICITY":0.00015221,"INCLINATION":87.9012,"RA_OF_ASC_NODE":289.5226,"ARG_OF_PERICENTER":63.7651,"MEAN_ANOMALY":296.3636,"EPHEMERIS_TYPE":0,"CLASSIFICATION_TYPE":"U","NORAD_CAT_ID":56714,"ELEMENT_SET_NO":999,"REV_AT_EPOCH":12930,"BSTAR":0.0005336642,"MEAN_MOTION_DOT":2.14e-6,"MEAN_MOTION_DDOT":0},{"OBJECT_NAME":"ONEWEB-0679","OBJECT_ID":"2023-068F","EPOCH":"2026-01-16T04:10:13.337472","MEAN_MOTION":13.16594418,"ECCENTRICITY":0.00019732,"INCLINATION":87.903,"RA_OF_ASC_NODE":259.0266,"ARG_OF_PERICENTER":87.618,"MEAN_ANOMALY":272.5177,"EPHEMERIS_TYPE":0,"CLASSIFICATION_TYPE":"U","NORAD_CAT_ID":56715,"ELEMENT_SET_NO":999,"REV_AT_EPOCH":13172,"BSTAR":7.0190784e-5,"MEAN_MOTION_DOT":4.0e-7,"MEAN_MOTION_DDOT":0},{"OBJECT_NAME":"ONEWEB-0680","OBJECT_ID":"2023-068G","EPOCH":"2026-01-16T05:59:33.202176","MEAN_MOTION":13.21825523,"ECCENTRICITY":0.00018501,"INCLINATION":87.9221,"RA_OF_ASC_NODE":274.2702,"ARG_OF_PERICENTER":95.3998,"MEAN_ANOMALY":264.7347,"EPHEMERIS_TYPE":0,"CLASSIFICATION_TYPE":"U","NORAD_CAT_ID":56716,"ELEMENT_SET_NO":999,"REV_AT_EPOCH":13102,"BSTAR":-2.5460885e-5,"MEAN_MOTION_DOT":3.0e-8,"MEAN_MOTION_DDOT":0},{"OBJECT_NAME":"ONEWEB-0681","OBJECT_ID":"2023-068H","EPOCH":"2026-01-16T05:29:55.187808","MEAN_MOTION":13.21823865,"ECCENTRICITY":0.00025221,"INCLINATION":87.9215,"RA_OF_ASC_NODE":274.2869,"ARG_OF_PERICENTER":63.4152,"MEAN_ANOMALY":296.724,"EPHEMERIS_TYPE":0,"CLASSIFICATION_TYPE":"U","NORAD_CAT_ID":56717,"ELEMENT_SET_NO":999,"REV_AT_EPOCH":13101,"BSTAR":-0.00012498301,"MEAN_MOTION_DOT":-3.9e-7,"MEAN_MOTION_DDOT":0},{"OBJECT_NAME":"ONEWEB-0682","OBJECT_ID":"2023-068J","EPOCH":"2026-01-16T05:21:57.703392","MEAN_MOTION":13.15550251,"ECCENTRICITY":0.00018715,"INCLINATION":87.9005,"RA_OF_ASC_NODE":289.5288,"ARG_OF_PERICENTER":90.6527,"MEAN_ANOMALY":269.4818,"EPHEMERIS_TYPE":0,"CLASSIFICATION_TYPE":"U","NORAD_CAT_ID":56718,"ELEMENT_SET_NO":999,"REV_AT_EPOCH":12947,"BSTAR":-3.8869428e-5,"MEAN_MOTION_DOT":-2.0e-8,"MEAN_MOTION_DDOT":0},{"OBJECT_NAME":"ONEWEB-0683","OBJECT_ID":"2023-068K","EPOCH":"2026-01-16T05:52:46.814592","MEAN_MOTION":13.15548854,"ECCENTRICITY":0.00016494,"INCLINATION":87.9016,"RA_OF_ASC_NODE":289.5124,"ARG_OF_PERICENTER":83.787,"MEAN_ANOMALY":276.3448,"EPHEMERIS_TYPE":0,"CLASSIFICATION_TYPE":"U","NORAD_CAT_ID":56719,"ELEMENT_SET_NO":999,"REV_AT_EPOCH":12944,"BSTAR":-0.0003290371,"MEAN_MOTION_DOT":-1.11e-6,"MEAN_MOTION_DDOT":0},{"OBJECT_NAME":"ONEWEB-0684","OBJECT_ID":"2023-068L","EPOCH":"2026-01-16T04:14:38.073120","MEAN_MOTION":13.1554781,"ECCENTRICITY":7.189e-5,"INCLINATION":87.9007,"RA_OF_ASC_NODE":289.5187,"ARG_OF_PERICENTER":16.7052,"MEAN_ANOMALY":343.4102,"EPHEMERIS_TYPE":0,"CLASSIFICATION_TYPE":"U","NORAD_CAT_ID":56720,"ELEMENT_SET_NO":999,"REV_AT_EPOCH":12926,"BSTAR":-0.00074087993,"MEAN_MOTION_DOT":-2.66e-6,"MEAN_MOTION_DDOT":0},{"OBJECT_NAME":"ONEWEB-0686","OBJECT_ID":"2023-068M","EPOCH":"2026-01-16T05:09:35.691552","MEAN_MOTION":13.17180663,"ECCENTRICITY":0.00012349,"INCLINATION":87.9021,"RA_OF_ASC_NODE":259.0667,"ARG_OF_PERICENTER":92.6565,"MEAN_ANOMALY":267.4708,"EPHEMERIS_TYPE":0,"CLASSIFICATION_TYPE":"U","NORAD_CAT_ID":56721,"ELEMENT_SET_NO":999,"REV_AT_EPOCH":13171,"BSTAR":0.00013021631,"MEAN_MOTION_DOT":6.3e-7,"MEAN_MOTION_DDOT":0},{"OBJECT_NAME":"ONEWEB-0694","OBJECT_ID":"2023-068N","EPOCH":"2026-01-16T05:11:45.338208","MEAN_MOTION":13.1659296,"ECCENTRICITY":0.00016187,"INCLINATION":87.9043,"RA_OF_ASC_NODE":259.0002,"ARG_OF_PERICENTER":95.6527,"MEAN_ANOMALY":264.4789,"EPHEMERIS_TYPE":0,"CLASSIFICATION_TYPE":"U","NORAD_CAT_ID":56722,"ELEMENT_SET_NO":999,"REV_AT_EPOCH":13177,"BSTAR":8.1141261e-5,"MEAN_MOTION_DOT":4.4e-7,"MEAN_MOTION_DDOT":0},{"OBJECT_NAME":"ONEWEB-0696","OBJECT_ID":"2023-068P","EPOCH":"2026-01-16T05:02:34.580544","MEAN_MOTION":13.15549313,"ECCENTRICITY":0.00014204,"INCLINATION":87.9004,"RA_OF_ASC_NODE":289.5629,"ARG_OF_PERICENTER":66.185,"MEAN_ANOMALY":293.9429,"EPHEMERIS_TYPE":0,"CLASSIFICATION_TYPE":"U","NORAD_CAT_ID":56723,"ELEMENT_SET_NO":999,"REV_AT_EPOCH":12938,"BSTAR":0.00045700219,"MEAN_MOTION_DOT":1.85e-6,"MEAN_MOTION_DDOT":0},{"OBJECT_NAME":"ONEWEB-0703","OBJECT_ID":"2023-068Q","EPOCH":"2026-01-16T05:16:16.621248","MEAN_MOTION":13.15548447,"ECCENTRICITY":0.00018802,"INCLINATION":87.9005,"RA_OF_ASC_NODE":289.542,"ARG_OF_PERICENTER":41.0173,"MEAN_ANOMALY":319.1098,"EPHEMERIS_TYPE":0,"CLASSIFICATION_TYPE":"U","NORAD_CAT_ID":56724,"ELEMENT_SET_NO":999,"REV_AT_EPOCH":12927,"BSTAR":0.00014840509,"MEAN_MOTION_DOT":6.9e-7,"MEAN_MOTION_DDOT":0},{"OBJECT_NAME":"ONEWEB-0721","OBJECT_ID":"2023-068R","EPOCH":"2026-01-16T06:59:28.274208","MEAN_MOTION":13.22456764,"ECCENTRICITY":0.0001565,"INCLINATION":86.6822,"RA_OF_ASC_NODE":133.9882,"ARG_OF_PERICENTER":106.0144,"MEAN_ANOMALY":254.1162,"EPHEMERIS_TYPE":0,"CLASSIFICATION_TYPE":"U","NORAD_CAT_ID":56725,"ELEMENT_SET_NO":999,"REV_AT_EPOCH":13786,"BSTAR":-9.8731586e-5,"MEAN_MOTION_DOT":-2.7e-7,"MEAN_MOTION_DDOT":0},{"OBJECT_NAME":"ONEWEB-0015","OBJECT_ID":"2024-188A","EPOCH":"2026-01-16T07:49:51.782592","MEAN_MOTION":13.11413586,"ECCENTRICITY":0.0002401,"INCLINATION":87.8818,"RA_OF_ASC_NODE":51.3287,"ARG_OF_PERICENTER":93.1248,"MEAN_ANOMALY":267.0155,"EPHEMERIS_TYPE":0,"CLASSIFICATION_TYPE":"U","NORAD_CAT_ID":61594,"ELEMENT_SET_NO":999,"REV_AT_EPOCH":6455,"BSTAR":0.00060915662,"MEAN_MOTION_DOT":2.29e-6,"MEAN_MOTION_DDOT":0},{"OBJECT_NAME":"ONEWEB-0687","OBJECT_ID":"2024-188B","EPOCH":"2026-01-16T06:46:48.588384","MEAN_MOTION":13.17650561,"ECCENTRICITY":0.00022997,"INCLINATION":87.9074,"RA_OF_ASC_NODE":36.084,"ARG_OF_PERICENTER":102.3178,"MEAN_ANOMALY":257.8211,"EPHEMERIS_TYPE":0,"CLASSIFICATION_TYPE":"U","NORAD_CAT_ID":61595,"ELEMENT_SET_NO":999,"REV_AT_EPOCH":6589,"BSTAR":0.00015976798,"MEAN_MOTION_DOT":7.5e-7,"MEAN_MOTION_DDOT":0}]
